[	
	[],
	[],
  	[
		{
			"names": {
				"fr": "La Lune",
				"en": "The Moon"
			},
			"satellite_type": "major",
			"diameter": 1728.1,
			"axial_tilt": 6.68,
			"mean_density": 3344,
			"gravity": 1.62,
			"escape_velocity": 2.38,
			"rotation_period": 655.7,
			"mass": 0.07346e+24,
			"volume": 2.1968e+10,
			"mean_temperature": -20,
			"length_of_day":708.7,
			"orbit": {
				"semi_major_axis": 0.3844e+6,
				"perihelion_distance": 0.3633e+6,
				"aphelion_distance": 0.4055e+6,
				"eccentricity": 0.0549,
				"inclination": 5.145,
				"orbital_period": 27.3217,
				"orbital_speed": 1.0
			}
		}
  	], [
		{
			"names": {
				"fr": "Phobos",
				"en": "Phobos"
			},
			"satellite_type": "major",
			"diameter": 1728.1,
			"axial_tilt": 6.68,
			"mean_density": 3344,
			"gravity": 1.62,
			"escape_velocity": 2.38,
			"rotation_period": 655.7,
			"mass": 0.07346e+24,
			"volume": 2.1968e+10,
			"mean_temperature": -20,
			"length_of_day":708.7,
			"orbit": {
				"semi_major_axis": 0.3844e+6,
				"perihelion_distance": 0.3633e+6,
				"aphelion_distance": 0.4055e+6,
				"eccentricity": 0.0549,
				"inclination": 5.145,
				"orbital_period": 27.3217,
				"orbital_speed": 1.0
			}
		},{
			"names": {
				"fr": "Phobos",
				"en": "Phobos"
			},
			"satellite_type": "major",
			"diameter": 1728.1,
			"axial_tilt": 6.68,
			"mean_density": 3344,
			"gravity": 1.62,
			"escape_velocity": 2.38,
			"rotation_period": 655.7,
			"mass": 0.07346e+24,
			"volume": 2.1968e+10,
			"mean_temperature": -20,
			"length_of_day":708.7,
			"orbit": {
				"semi_major_axis": 0.3844e+6,
				"perihelion_distance": 0.3633e+6,
				"aphelion_distance": 0.4055e+6,
				"eccentricity": 0.0549,
				"inclination": 5.145,
				"orbital_period": 27.3217,
				"orbital_speed": 1.0
			}
		}
	], [
		{
			"names": {
				"fr": "Metis (JXVI, S/1979 J3)",
				"en": "Metis (JXVI, S/1979 J3)"
			},
			"satellite_type": "minor",
			"diameter": 44,
			"orbit": {
				"semi_major_axis": 128000,
				"eccentricity": 0.001,
				"inclination": 0.019,
				"ascending_node": 138.1,
      	"perihelion_argument": 40.7,
				"orbital_period": 0.30
			}
		}, {
			"names": {
				"fr": "Adrastea (JXV, S/1979 J1)",
				"en": "Adrastea (JXV, S/1979 J1)"
			},
			"satellite_type": "minor",
			"diameter": 16,
			"orbit": {
				"semi_major_axis": 129000,
				"eccentricity": 0.002,
				"inclination": 0.054,
				"ascending_node": 167.4,
      	"perihelion_argument": 21.2,
				"orbital_period": 0.30
			}
		}, {
			"names": {
				"fr": "Amalthea (JV)",
				"en": "Amalthea (JV)"
			},
			"satellite_type": "minor",
			"diameter": 168,
			"orbit": {
				"semi_major_axis": 181400,
				"eccentricity": 0.003,
				"inclination": 0.380,
				"ascending_node": 112.3,
      	"perihelion_argument": 147.8,
				"orbital_period": 0.50
			}
		}, {
			"names": {
				"fr": "Thebe (JXIV, S/1979 J2)",
				"en": "Thebe (JXIV, S/1979 J2)"
			},
			"satellite_type": "minor",
			"diameter": 98,
			"orbit": {
				"semi_major_axis": 221900,
				"eccentricity": 0.018,
				"inclination": 1.080,
				"ascending_node": 235.9,
      	"perihelion_argument": 233.5,
				"orbital_period": 0.68
			}
		},{
			"names": {
				"fr": "Io (JI)",
				"en": "Io (JI)"
			},
			"satellite_type": "major",
			"diameter": 3643,
			"orbit": {
				"semi_major_axis": 421800,
				"eccentricity": 0.004,
				"inclination": 0.036,
				"ascending_node": 44.3,
      	"perihelion_argument": 268.7,
				"orbital_period": 1.77
			}
		},{
			"names": {
				"fr": "Europa (JII)",
				"en": "Europa (JII)"
			},
			"satellite_type": "major",
			"diameter": 3122,
			"orbit": {
				"semi_major_axis": 671100,
				"eccentricity": 0.009,
				"inclination": 0.466,
				"ascending_node": 219.6,
      	"perihelion_argument": 225.8,
				"orbital_period": 3.55
			}
		},{
			"names": {
				"fr": "Ganymede (JIII)",
				"en": "Ganymede (JIII)"
			},
			"satellite_type": "major",
			"diameter": 5262,
			"orbit": {
				"semi_major_axis": 1070400,
				"eccentricity": 0.001,
				"inclination": 0.177,
				"ascending_node": 65.7,
      	"perihelion_argument": 192.3,
				"orbital_period": 7.16
			}
		},{
			"names": {
				"fr": "Callisto (JIV)",
				"en": "Callisto (JIV)"
			},
			"satellite_type": "major",
			"diameter": 4821,
			"orbit": {
				"semi_major_axis": 1882700,
				"eccentricity": 0.007,
				"inclination": 0.192,
				"ascending_node": 305.3,
      	"perihelion_argument": 46.2,
				"orbital_period": 16.69
			}
		},{
			"names": {
				"fr": "Themisto (JXVIII, S/1975 J1)",
				"en": "Themisto (JXVIII, S/1975 J1)"
			},
			"satellite_type": "minor",
			"diameter": 9,
			"orbit": {
				"semi_major_axis": 7507000,
				"eccentricity": 0.242,
				"inclination": 43.08,
				"ascending_node": 201.5,
      	"perihelion_argument": 240.7,
				"orbital_period": 130.0
			}
		},{
			"names": {
				"fr": "Leda (JXIII)",
				"en": "Leda (JXIII)"
			},
			"satellite_type": "minor",
			"diameter": 18,
			"orbit": {
				"semi_major_axis": 11165000,
				"eccentricity": 0.164,
				"inclination": 27.46,
				"ascending_node": 217.1,
      	"perihelion_argument": 272.3,
				"orbital_period": 240.9
			}
		},{
			"names": {
				"fr": "Himalia (JVI)",
				"en": "Himalia (JVI)"
			},
			"satellite_type": "minor",
			"diameter": 160,
			"orbit": {
				"semi_major_axis": 11461000,
				"eccentricity": 0.162,
				"inclination": 27.50,
				"ascending_node": 57.2,
      	"perihelion_argument": 332.0,
				"orbital_period": 250.6
			}
		},{
			"names": {
				"fr": "Lysithea (JX)",
				"en": "Lysithea (JX)"
			},
			"satellite_type": "minor",
			"diameter": 38,
			"orbit": {
				"semi_major_axis": 11717000,
				"eccentricity": 0.112,
				"inclination": 28.30,
				"ascending_node": 5.5,
      	"perihelion_argument": 49.5,
				"orbital_period": 259.2
			}
		},{
			"names": {
				"fr": "Elara (JVII)",
				"en": "Elara (JVII)"
			},
			"satellite_type": "minor",
			"diameter": 78,
			"orbit": {
				"semi_major_axis": 11741000,
				"eccentricity": 0.217,
				"inclination": 26.63,
				"ascending_node": 109.4,
      	"perihelion_argument": 143.6,
				"orbital_period": 259.6
			}
		},{
			"names": {
				"fr": "Dia (JLIII, S/2000 J11)",
				"en": "Dia (JLIII, S/2000 J11)"
			},
			"satellite_type": "minor",
			"diameter": 4,
			"orbit": {
				"semi_major_axis": 12118000,
				"eccentricity": 0.211,
				"inclination": 28.23,
				"ascending_node": 290.9,
      	"perihelion_argument": 178.0,
				"orbital_period": 287.0
			}
		},{
			"names": {
				"fr": "Carpo (JXLVI, S/2003 J20)",
				"en": "Carpo (JXLVI, S/2003 J20)"
			},
			"satellite_type": "minor",
			"diameter": 3,
			"orbit": {
				"semi_major_axis": 16989000,
				"eccentricity": 0.430,
				"inclination": 51.4,
				"ascending_node": 60.9,
      	"perihelion_argument": 90.0,
				"orbital_period": 456.1
			}
		},{
			"names": {
				"fr": "Euporie (JXXXIV, S/2001 J10)",
				"en": "Euporie (JXXXIV, S/2001 J10)"
			},
			"satellite_type": "minor",
			"diameter": 2,
			"orbit": {
				"semi_major_axis": 19302000,
				"eccentricity": 0.144,
				"inclination": 145.8,
				"ascending_node": 64.9,
      	"perihelion_argument": 74.6,
				"orbital_period": 550.7
			}
		},{
			"names": {
				"fr": "Orthosie (JXXXV, S/2001 J9)",
				"en": "Orthosie (JXXXV, S/2001 J9)"
			},
			"satellite_type": "minor",
			"diameter": 2,
			"orbit": {
				"semi_major_axis": 20721000,
				"eccentricity": 0.281,
				"inclination": 145.9,
				"ascending_node": 223.6,
      	"perihelion_argument": 230.5,
				"orbital_period": 622.6
			}
		},{
			"names": {
				"fr": "Euanthe (JXXXIII, S/2001 J7)",
				"en": "Euanthe (JXXXIII, S/2001 J7)"
			},
			"satellite_type": "minor",
			"diameter": 3,
			"orbit": {
				"semi_major_axis": 20799000,
				"eccentricity": 0.232,
				"inclination": 148.9,
				"ascending_node": 271.0,
      	"perihelion_argument": 316.0,
				"orbital_period": 620.6
			}
		},{
			"names": {
				"fr": "Thyone (JXXIX, S/2001 J2)",
				"en": "Thyone (JXXIX, S/2001 J2)"
			},
			"satellite_type": "minor",
			"diameter": 4,
			"orbit": {
				"semi_major_axis": 20940000,
				"eccentricity": 0.229,
				"inclination": 148.5,
				"ascending_node": 243.0,
      	"perihelion_argument": 89.1,
				"orbital_period": 627.3
			}
		},{
			"names": {
				"fr": "Mneme (JXL, S/2003 J21)",
				"en": "Mneme (JXL, S/2003 J21)"
			},
			"satellite_type": "minor",
			"diameter": 2,
			"orbit": {
				"semi_major_axis": 21069000,
				"eccentricity": 0.227,
				"inclination": 148.6,
				"ascending_node": 18.1,
      	"perihelion_argument": 41.7,
				"orbital_period": 620.0
			}
		},{
			"names": {
				"fr": "Harpalyke (JXXII, S/2000 J5)",
				"en": "Harpalyke (JXXII, S/2000 J5)"
			},
			"satellite_type": "minor",
			"diameter": 4,
			"orbit": {
				"semi_major_axis": 21105000,
				"eccentricity": 0.226,
				"inclination": 148.6,
				"ascending_node": 40.0,
      	"perihelion_argument": 129.9,
				"orbital_period": 623.3
			}
		},{
			"names": {
				"fr": "Hermippe (JXXX, S/2001 J3)",
				"en": "Hermippe (JXXX, S/2001 J3)"
			},
			"satellite_type": "minor",
			"diameter": 4,
			"orbit": {
				"semi_major_axis": 21131000,
				"eccentricity": 0.210,
				"inclination": 150.7,
				"ascending_node": 347.2,
      	"perihelion_argument": 298.7,
				"orbital_period": 633.9
			}
		},{
			"names": {
				"fr": "Praxidike (JXXVII, S/2000 J7)",
				"en": "Praxidike (JXXVII, S/2000 J7)"
			},
			"satellite_type": "minor",
			"diameter": 7,
			"orbit": {
				"semi_major_axis": 21147000,
				"eccentricity": 0.230,
				"inclination": 149.0,
				"ascending_node": 285.2,
      	"perihelion_argument": 209.7,
				"orbital_period": 625.3
			}
		},{
			"names": {
				"fr": "Thelxinoe (XLII, S/2003 J22)",
				"en": "Thelxinoe (XLII, S/2003 J22)"
			},
			"satellite_type": "minor",
			"diameter": 2,
			"orbit": {
				"semi_major_axis": 21162000,
				"eccentricity": 0.221,
				"inclination": 151.4,
				"ascending_node": 206.2,
      	"perihelion_argument": 179.8,
				"orbital_period": 628.1
			}
		}
	], [], [], [], []
]